{
    "links": {
        "self": "http://www.neowsapp.com/rest/v1/neo/3719993?api_key=iIulBulltgU6a56xZRHN4H3l9WmuAYTsLGpBGhQ2"
    },
    "id": "3719993",
    "neo_reference_id": "3719993",
    "name": "(2015 KK120)",
    "designation": "2015 KK120",
    "nasa_jpl_url": "http://ssd.jpl.nasa.gov/sbdb.cgi?sstr=3719993",
    "absolute_magnitude_h": 28.1,
    "estimated_diameter": {
        "kilometers": {
            "estimated_diameter_min": 0.0063760979,
            "estimated_diameter_max": 0.0142573883
        },
        "meters": {
            "estimated_diameter_min": 6.3760978988,
            "estimated_diameter_max": 14.2573883328
        },
        "miles": {
            "estimated_diameter_min": 0.0039619223,
            "estimated_diameter_max": 0.0088591276
        },
        "feet": {
            "estimated_diameter_min": 20.9189570301,
            "estimated_diameter_max": 46.7762099378
        }
    },
    "is_potentially_hazardous_asteroid": false,
    "close_approach_data": [
        {
            "close_approach_date": "1955-07-03",
            "close_approach_date_full": "1955-Jul-03 08:58",
            "epoch_date_close_approach": -457542120000,
            "relative_velocity": {
                "kilometers_per_second": "11.4292936684",
                "kilometers_per_hour": "41145.4572061309",
                "miles_per_hour": "25566.1870067762"
            },
            "miss_distance": {
                "astronomical": "0.3254138805",
                "lunar": "126.5859995145",
                "kilometers": "48681223.391234535",
                "miles": "30249109.545465183"
            },
            "orbiting_body": "Earth"
        },
        {
            "close_approach_date": "2015-05-31",
            "close_approach_date_full": "2015-May-31 14:04",
            "epoch_date_close_approach": 1433081040000,
            "relative_velocity": {
                "kilometers_per_second": "3.1892287632",
                "kilometers_per_hour": "11481.2235476292",
                "miles_per_hour": "7133.9858204699"
            },
            "miss_distance": {
                "astronomical": "0.0623193895",
                "lunar": "24.2422425155",
                "kilometers": "9322847.928900365",
                "miles": "5792949.080400437"
            },
            "orbiting_body": "Earth"
        }
    ],
    "orbital_data": {
        "orbit_id": "3",
        "orbit_determination_date": "2017-04-06 08:33:31",
        "first_observation_date": "2015-05-20",
        "last_observation_date": "2015-05-24",
        "data_arc_in_days": 4,
        "observations_used": 15,
        "orbit_uncertainty": "9",
        "minimum_orbit_intersection": ".0620384",
        "jupiter_tisserand_invariant": "4.586",
        "epoch_osculation": "2457164.5",
        "eccentricity": ".263621645797028",
        "semi_major_axis": "1.45965548052883",
        "inclination": "2.412278282889334",
        "ascending_node_longitude": "235.1285482219064",
        "orbital_period": "644.1306579177666",
        "perihelion_distance": "1.074858700455168",
        "perihelion_argument": "12.79251717284011",
        "aphelion_distance": "1.844452260602492",
        "perihelion_time": "2457172.720160546277",
        "mean_anomaly": "355.4058112895513",
        "mean_motion": ".5588928202295871",
        "equinox": "J2000",
        "orbit_class": {
            "orbit_class_type": "AMO",
            "orbit_class_description": "Near-Earth asteroid orbits similar to that of 1221 Amor",
            "orbit_class_range": "1.017 AU < q (perihelion) < 1.3 AU"
        }
    },
    "is_sentry_object": false
}